{
    "links": {
        "self": "http://www.neowsapp.com/rest/v1/neo/3574786?api_key=iIulBulltgU6a56xZRHN4H3l9WmuAYTsLGpBGhQ2"
    },
    "id": "3574786",
    "neo_reference_id": "3574786",
    "name": "(2011 OE26)",
    "designation": "2011 OE26",
    "nasa_jpl_url": "http://ssd.jpl.nasa.gov/sbdb.cgi?sstr=3574786",
    "absolute_magnitude_h": 23.0,
    "estimated_diameter": {
        "kilometers": {
            "estimated_diameter_min": 0.0667659413,
            "estimated_diameter_max": 0.1492931834
        },
        "meters": {
            "estimated_diameter_min": 66.7659413495,
            "estimated_diameter_max": 149.2931834393
        },
        "miles": {
            "estimated_diameter_min": 0.0414864197,
            "estimated_diameter_max": 0.0927664547
        },
        "feet": {
            "estimated_diameter_min": 219.0483710172,
            "estimated_diameter_max": 489.807047955
        }
    },
    "is_potentially_hazardous_asteroid": false,
    "close_approach_data": [
        {
            "close_approach_date": "2011-07-02",
            "close_approach_date_full": "2011-Jul-02 11:43",
            "epoch_date_close_approach": 1309606980000,
            "relative_velocity": {
                "kilometers_per_second": "15.0353133994",
                "kilometers_per_hour": "54127.1282377669",
                "miles_per_hour": "33632.4925430725"
            },
            "miss_distance": {
                "astronomical": "0.1135519628",
                "lunar": "44.1717135292",
                "kilometers": "16987131.769199236",
                "miles": "10555314.2249560168"
            },
            "orbiting_body": "Earth"
        }
    ],
    "orbital_data": {
        "orbit_id": "8",
        "orbit_determination_date": "2017-10-05 06:46:53",
        "first_observation_date": "2011-07-26",
        "last_observation_date": "2011-08-19",
        "data_arc_in_days": 24,
        "observations_used": 14,
        "orbit_uncertainty": "7",
        "minimum_orbit_intersection": ".104253",
        "jupiter_tisserand_invariant": "2.777",
        "epoch_osculation": "2459000.5",
        "eccentricity": ".7152702816132699",
        "semi_major_axis": "3.00258774758948",
        "inclination": "10.48722642950998",
        "ascending_node_longitude": "315.2997474044562",
        "orbital_period": "1900.386729190148",
        "perihelion_distance": ".8549259638025989",
        "perihelion_argument": "272.0536829251239",
        "aphelion_distance": "5.15024953137636",
        "perihelion_time": "2459503.405233619057",
        "mean_anomaly": "264.7320835691094",
        "mean_motion": ".1894351262668596",
        "equinox": "J2000",
        "orbit_class": {
            "orbit_class_type": "APO",
            "orbit_class_description": "Near-Earth asteroid orbits which cross the Earth’s orbit similar to that of 1862 Apollo",
            "orbit_class_range": "a (semi-major axis) > 1.0 AU; q (perihelion) < 1.017 AU"
        }
    },
    "is_sentry_object": false
}